[
  {
    "OBJECT_NAME": "STARLINK-1210",
    "OBJECT_ID": "20012AF",
    "EPOCH": "2025-11-11T08:00:03.000384",
    "MEAN_MOTION": 15.59463429,
    "ECCENTRICITY": 0.0010425,
    "INCLINATION": 53.0236,
    "RA_OF_ASC_NODE": 133.787,
    "ARG_OF_PERICENTER": 101.5737,
    "MEAN_ANOMALY": 186.3344,
    "EPHEMERIS_TYPE": 0,
    "CLASSIFICATION_TYPE": "U",
    "NORAD_CAT_ID": 45207,
    "ELEMENT_SET_NO": 999,
    "REV_AT_EPOCH": 588,
    "BSTAR": 0.0027283000000000003,
    "MEAN_MOTION_DOT": 0.00226278,
    "MEAN_MOTION_DDOT": 0.0,
    "TLE_LINE1": "1 45207U 20012AF  25315.33336806  .00226278  00000+0  27283-2 0  9991",
    "TLE_LINE2": "2 45207  53.0236 133.7870 0010425 101.5737 186.3344 15.59463429  5882",
    "COMMENT": "Grouped by shell and plane from TLE"
  },
  {
    "OBJECT_NAME": "STARLINK-2069",
    "OBJECT_ID": "21005L",
    "EPOCH": "2025-11-11T08:00:03.000384",
    "MEAN_MOTION": 15.67895608,
    "ECCENTRICITY": 0.0003859,
    "INCLINATION": 53.0136,
    "RA_OF_ASC_NODE": 138.7908,
    "ARG_OF_PERICENTER": 208.7493,
    "MEAN_ANOMALY": 327.3842,
    "EPHEMERIS_TYPE": 0,
    "CLASSIFICATION_TYPE": "U",
    "NORAD_CAT_ID": 47359,
    "ELEMENT_SET_NO": 999,
    "REV_AT_EPOCH": 559,
    "BSTAR": 0.0021722,
    "MEAN_MOTION_DOT": 0.00251305,
    "MEAN_MOTION_DDOT": 0.0,
    "TLE_LINE1": "1 47359U 21005L   25315.33336806  .00251305  00000+0  21722-2 0  9995",
    "TLE_LINE2": "2 47359  53.0136 138.7908 0003859 208.7493 327.3842 15.67895608  5595",
    "COMMENT": "Grouped by shell and plane from TLE"
  },
  {
    "OBJECT_NAME": "STARLINK-11072 [DTC]",
    "OBJECT_ID": "24002A",
    "EPOCH": "2025-11-10T22:08:22.421472",
    "MEAN_MOTION": 15.69707532,
    "ECCENTRICITY": 0.0001027,
    "INCLINATION": 53.1585,
    "RA_OF_ASC_NODE": 139.4993,
    "ARG_OF_PERICENTER": 89.7247,
    "MEAN_ANOMALY": 270.3889,
    "EPHEMERIS_TYPE": 0,
    "CLASSIFICATION_TYPE": "U",
    "NORAD_CAT_ID": 58705,
    "ELEMENT_SET_NO": 999,
    "REV_AT_EPOCH": 10778,
    "BSTAR": 2.8713e-05,
    "MEAN_MOTION_DOT": 2.891e-05,
    "MEAN_MOTION_DDOT": 0.0,
    "TLE_LINE1": "1 58705U 24002A   25314.92248173  .00002891  00000+0  28713-4 0  9998",
    "TLE_LINE2": "2 58705  53.1585 139.4993 0001027  89.7247 270.3889 15.69707532107784",
    "COMMENT": "Grouped by shell and plane from TLE"
  },
  {
    "OBJECT_NAME": "STARLINK-11075 [DTC]",
    "OBJECT_ID": "24002B",
    "EPOCH": "2025-11-11T05:53:51.237888",
    "MEAN_MOTION": 15.69696739,
    "ECCENTRICITY": 9.06e-05,
    "INCLINATION": 53.1617,
    "RA_OF_ASC_NODE": 137.9696,
    "ARG_OF_PERICENTER": 50.6317,
    "MEAN_ANOMALY": 309.4781,
    "EPHEMERIS_TYPE": 0,
    "CLASSIFICATION_TYPE": "U",
    "NORAD_CAT_ID": 58706,
    "ELEMENT_SET_NO": 999,
    "REV_AT_EPOCH": 10783,
    "BSTAR": 4.1755e-05,
    "MEAN_MOTION_DOT": 4.47e-05,
    "MEAN_MOTION_DDOT": 0.0,
    "TLE_LINE1": "1 58706U 24002B   25315.24573192  .00004470  00000+0  41755-4 0  9993",
    "TLE_LINE2": "2 58706  53.1617 137.9696 0000906  50.6317 309.4781 15.69696739107831",
    "COMMENT": "Grouped by shell and plane from TLE"
  },
  {
    "OBJECT_NAME": "STARLINK-11076 [DTC]",
    "OBJECT_ID": "24002E",
    "EPOCH": "2025-11-11T05:32:39.568992",
    "MEAN_MOTION": 15.69705183,
    "ECCENTRICITY": 4.46e-05,
    "INCLINATION": 53.1612,
    "RA_OF_ASC_NODE": 137.8659,
    "ARG_OF_PERICENTER": 147.4303,
    "MEAN_ANOMALY": 212.6743,
    "EPHEMERIS_TYPE": 0,
    "CLASSIFICATION_TYPE": "U",
    "NORAD_CAT_ID": 58709,
    "ELEMENT_SET_NO": 999,
    "REV_AT_EPOCH": 10783,
    "BSTAR": 2.6817000000000004e-05,
    "MEAN_MOTION_DOT": 2.662e-05,
    "MEAN_MOTION_DDOT": 0.0,
    "TLE_LINE1": "1 58709U 24002E   25315.23101353  .00002662  00000+0  26817-4 0  9994",
    "TLE_LINE2": "2 58709  53.1612 137.8659 0000446 147.4303 212.6743 15.69705183107833",
    "COMMENT": "Grouped by shell and plane from TLE"
  },
  {
    "OBJECT_NAME": "STARLINK-11078 [DTC]",
    "OBJECT_ID": "24002F",
    "EPOCH": "2025-11-11T05:25:35.910912",
    "MEAN_MOTION": 15.69707654,
    "ECCENTRICITY": 0.0001087,
    "INCLINATION": 53.1596,
    "RA_OF_ASC_NODE": 137.8358,
    "ARG_OF_PERICENTER": 94.1848,
    "MEAN_ANOMALY": 265.9294,
    "EPHEMERIS_TYPE": 0,
    "CLASSIFICATION_TYPE": "U",
    "NORAD_CAT_ID": 58710,
    "ELEMENT_SET_NO": 999,
    "REV_AT_EPOCH": 10783,
    "BSTAR": 3.2355000000000004e-05,
    "MEAN_MOTION_DOT": 3.332e-05,
    "MEAN_MOTION_DDOT": 0.0,
    "TLE_LINE1": "1 58710U 24002F   25315.22611008  .00003332  00000+0  32355-4 0  9997",
    "TLE_LINE2": "2 58710  53.1596 137.8358 0001087  94.1848 265.9294 15.69707654107833",
    "COMMENT": "Grouped by shell and plane from TLE"
  },
  {
    "OBJECT_NAME": "STARLINK-11129 [DTC]",
    "OBJECT_ID": "24112A",
    "EPOCH": "2025-11-10T22:16:19.219008",
    "MEAN_MOTION": 15.69718831,
    "ECCENTRICITY": 2.78e-05,
    "INCLINATION": 53.1574,
    "RA_OF_ASC_NODE": 132.0555,
    "ARG_OF_PERICENTER": 53.8885,
    "MEAN_ANOMALY": 306.2158,
    "EPHEMERIS_TYPE": 0,
    "CLASSIFICATION_TYPE": "U",
    "NORAD_CAT_ID": 60038,
    "ELEMENT_SET_NO": 999,
    "REV_AT_EPOCH": 8232,
    "BSTAR": 0.0,
    "MEAN_MOTION_DOT": -1.487e-05,
    "MEAN_MOTION_DDOT": 0.0,
    "TLE_LINE1": "1 60038U 24112A   25314.92800022 -.00001487  00000+0 -74280-5 0  9992",
    "TLE_LINE2": "2 60038  53.1574 132.0555 0000278  53.8885 306.2158 15.69718831 82328",
    "COMMENT": "Grouped by shell and plane from TLE"
  },
  {
    "OBJECT_NAME": "STARLINK-11140 [DTC]",
    "OBJECT_ID": "24112B",
    "EPOCH": "2025-11-10T19:05:53.625984",
    "MEAN_MOTION": 15.69708519,
    "ECCENTRICITY": 0.0001534,
    "INCLINATION": 53.1568,
    "RA_OF_ASC_NODE": 132.6483,
    "ARG_OF_PERICENTER": 322.3301,
    "MEAN_ANOMALY": 37.7609,
    "EPHEMERIS_TYPE": 0,
    "CLASSIFICATION_TYPE": "U",
    "NORAD_CAT_ID": 60039,
    "ELEMENT_SET_NO": 999,
    "REV_AT_EPOCH": 8230,
    "BSTAR": 2.5042e-05,
    "MEAN_MOTION_DOT": 2.445e-05,
    "MEAN_MOTION_DDOT": 0.0,
    "TLE_LINE1": "1 60039U 24112B   25314.79575956  .00002445  00000+0  25042-4 0  9997",
    "TLE_LINE2": "2 60039  53.1568 132.6483 0001534 322.3301  37.7609 15.69708519 82308",
    "COMMENT": "Grouped by shell and plane from TLE"
  },
  {
    "OBJECT_NAME": "STARLINK-11122 [DTC]",
    "OBJECT_ID": "24112C",
    "EPOCH": "2025-11-10T22:02:11.449248",
    "MEAN_MOTION": 15.69717955,
    "ECCENTRICITY": 8.61e-05,
    "INCLINATION": 53.1608,
    "RA_OF_ASC_NODE": 131.989,
    "ARG_OF_PERICENTER": 61.7091,
    "MEAN_ANOMALY": 298.4014,
    "EPHEMERIS_TYPE": 0,
    "CLASSIFICATION_TYPE": "U",
    "NORAD_CAT_ID": 60040,
    "ELEMENT_SET_NO": 999,
    "REV_AT_EPOCH": 8232,
    "BSTAR": 1.4034e-05,
    "MEAN_MOTION_DOT": 1.113e-05,
    "MEAN_MOTION_DDOT": 0.0,
    "TLE_LINE1": "1 60040U 24112C   25314.91818807  .00001113  00000+0  14034-4 0  9998",
    "TLE_LINE2": "2 60040  53.1608 131.9890 0000861  61.7091 298.4014 15.69717955 82323",
    "COMMENT": "Grouped by shell and plane from TLE"
  },
  {
    "OBJECT_NAME": "STARLINK-11149 [DTC]",
    "OBJECT_ID": "24112D",
    "EPOCH": "2025-11-10T21:55:05.919744",
    "MEAN_MOTION": 15.69787179,
    "ECCENTRICITY": 2.83e-05,
    "INCLINATION": 53.158,
    "RA_OF_ASC_NODE": 131.9548,
    "ARG_OF_PERICENTER": 309.3052,
    "MEAN_ANOMALY": 50.7941,
    "EPHEMERIS_TYPE": 0,
    "CLASSIFICATION_TYPE": "U",
    "NORAD_CAT_ID": 60041,
    "ELEMENT_SET_NO": 999,
    "REV_AT_EPOCH": 8232,
    "BSTAR": 0.0,
    "MEAN_MOTION_DOT": -0.00015732,
    "MEAN_MOTION_DDOT": 0.0,
    "TLE_LINE1": "1 60041U 24112D   25314.91326296 -.00015732  00000+0 -12485-3 0  9996",
    "TLE_LINE2": "2 60041  53.1580 131.9548 0000283 309.3052  50.7941 15.69787179 82322",
    "COMMENT": "Grouped by shell and plane from TLE"
  },
  {
    "OBJECT_NAME": "STARLINK-11120 [DTC]",
    "OBJECT_ID": "24112E",
    "EPOCH": "2025-11-10T21:48:04.076928",
    "MEAN_MOTION": 15.69713097,
    "ECCENTRICITY": 9.47e-05,
    "INCLINATION": 53.1592,
    "RA_OF_ASC_NODE": 131.9225,
    "ARG_OF_PERICENTER": 110.8925,
    "MEAN_ANOMALY": 249.2194,
    "EPHEMERIS_TYPE": 0,
    "CLASSIFICATION_TYPE": "U",
    "NORAD_CAT_ID": 60042,
    "ELEMENT_SET_NO": 999,
    "REV_AT_EPOCH": 8232,
    "BSTAR": 1.4256e-05,
    "MEAN_MOTION_DOT": 1.139e-05,
    "MEAN_MOTION_DDOT": 0.0,
    "TLE_LINE1": "1 60042U 24112E   25314.90838052  .00001139  00000+0  14256-4 0  9997",
    "TLE_LINE2": "2 60042  53.1592 131.9225 0000947 110.8925 249.2194 15.69713097 82322",
    "COMMENT": "Grouped by shell and plane from TLE"
  },
  {
    "OBJECT_NAME": "STARLINK-11086 [DTC]",
    "OBJECT_ID": "24112F",
    "EPOCH": "2025-11-11T05:19:25.829472",
    "MEAN_MOTION": 15.6971392,
    "ECCENTRICITY": 6.61e-05,
    "INCLINATION": 53.1599,
    "RA_OF_ASC_NODE": 130.323,
    "ARG_OF_PERICENTER": 84.9942,
    "MEAN_ANOMALY": 275.1151,
    "EPHEMERIS_TYPE": 0,
    "CLASSIFICATION_TYPE": "U",
    "NORAD_CAT_ID": 60043,
    "ELEMENT_SET_NO": 999,
    "REV_AT_EPOCH": 8237,
    "BSTAR": 0.0,
    "MEAN_MOTION_DOT": -9.92e-06,
    "MEAN_MOTION_DDOT": 0.0,
    "TLE_LINE1": "1 60043U 24112F   25315.22182673 -.00000992  00000+0 -33323-5 0  9990",
    "TLE_LINE2": "2 60043  53.1599 130.3230 0000661  84.9942 275.1151 15.69713920 82373",
    "COMMENT": "Grouped by shell and plane from TLE"
  },
  {
    "OBJECT_NAME": "STARLINK-11148 [DTC]",
    "OBJECT_ID": "24112G",
    "EPOCH": "2025-11-11T05:12:21.080160",
    "MEAN_MOTION": 15.69718558,
    "ECCENTRICITY": 7.25e-05,
    "INCLINATION": 53.1607,
    "RA_OF_ASC_NODE": 130.2912,
    "ARG_OF_PERICENTER": 78.2739,
    "MEAN_ANOMALY": 281.836,
    "EPHEMERIS_TYPE": 0,
    "CLASSIFICATION_TYPE": "U",
    "NORAD_CAT_ID": 60044,
    "ELEMENT_SET_NO": 999,
    "REV_AT_EPOCH": 8237,
    "BSTAR": 1.2919000000000001e-05,
    "MEAN_MOTION_DOT": 9.78e-06,
    "MEAN_MOTION_DDOT": 0.0,
    "TLE_LINE1": "1 60044U 24112G   25315.21691065  .00000978  00000+0  12919-4 0  9999",
    "TLE_LINE2": "2 60044  53.1607 130.2912 0000725  78.2739 281.8360 15.69718558 82379",
    "COMMENT": "Grouped by shell and plane from TLE"
  }
]